ONEWEB-0700             
1 61606U 24188N   25267.95124341  .00000657  00000+0  18464-2 0  9995
2 61606  87.8742  89.0257 0002138 103.3048 256.8318 13.10375146 48568
ONEWEB-0701             
1 61607U 24188P   25267.50968250  .00000388  00000+0  10753-2 0  9996
2 61607  87.8734  89.2348 0001693 118.4028 241.7270 13.10370348 48517
ONEWEB-0702             
1 61608U 24188Q   25267.50677681 -.00000219  00000+0 -65462-3 0  9995
2 61608  87.8727  73.9370 0002081 118.7796 241.3541 13.11417449 49661
ONEWEB-0704             
1 61609U 24188R   25267.95621642  .00000668  00000+0  18759-2 0  9993
2 61609  87.8763  89.0989 0002168 114.3912 245.7442 13.10373451 48552
ONEWEB-0705             
1 61610U 24188S   25267.96117683  .00001540  00000+0  43750-2 0  9990
2 61610  87.8747  89.1297 0002857  95.3820 264.7633 13.10382249 40729
ONEWEB-0706             
1 61611U 24188T   25267.94625344  .00000418  00000+0  11603-2 0  9992
2 61611  87.8745  89.1596 0002104 102.9228 257.2134 13.10375399 48642
ONEWEB-0707             
1 61612U 24188U   25267.95290901  .00000638  00000+0  17915-2 0  9997
2 61612  87.8750  89.1254 0002033 104.3843 255.7510 13.10374122 48587
ONEWEB-0708             
1 61613U 24188V   25267.51300276  .00000202  00000+0  54101-3 0  9993
2 61613  87.8753  89.2550 0002384  97.8368 262.3030 13.10370044 48500
